[{"OBJECT_NAME":"THEA","OBJECT_ID":"2018-099AQ","EPOCH":"2026-03-09T22:33:02.658240","MEAN_MOTION":15.31454284,"ECCENTRICITY":0.00065849,"INCLINATION":97.4542,"RA_OF_ASC_NODE":137.8815,"ARG_OF_PERICENTER":275.4664,"MEAN_ANOMALY":84.5826,"EPHEMERIS_TYPE":0,"CLASSIFICATION_TYPE":"U","NORAD_CAT_ID":43796,"ELEMENT_SET_NO":999,"REV_AT_EPOCH":39748,"BSTAR":0.00074635274,"MEAN_MOTION_DOT":0.00022649,"MEAN_MOTION_DDOT":0},{"OBJECT_NAME":"STARLINK-2568","OBJECT_ID":"2021-038BF","EPOCH":"2026-03-09T23:15:36.536832","MEAN_MOTION":15.30201959,"ECCENTRICITY":0.00012021,"INCLINATION":53.1616,"RA_OF_ASC_NODE":334.2576,"ARG_OF_PERICENTER":116.8644,"MEAN_ANOMALY":243.248,"EPHEMERIS_TYPE":0,"CLASSIFICATION_TYPE":"U","NORAD_CAT_ID":48406,"ELEMENT_SET_NO":999,"REV_AT_EPOCH":26744,"BSTAR":-0.00019372412,"MEAN_MOTION_DOT":-6.092e-5,"MEAN_MOTION_DDOT":0}]
